{
  "norad_id": 48380,
  "name": "STARLINK-2614",
  "history": [
    {
      "epoch": "2026-03-28T17:52:45.751008Z",
      "apogee_km": 475.9165134819996,
      "perigee_km": 474.4307157407511,
      "latitude_deg": -6.147097068113422e-05,
      "longitude_deg": 162.7291092816868,
      "height_km": 475.9350562274397,
      "semi_major_axis_km": 6853.310614611375,
      "eccentricity": 0.0001084,
      "inclination_deg": 53.1583,
      "raan_deg": 257.0808,
      "arg_perigee_deg": 79.3931,
      "mean_anomaly_deg": 280.7191,
      "mean_motion_rev_day": 15.30213884
    }
  ]
}